OBJECT_NAME,OBJECT_ID,EPOCH,MEAN_MOTION,ECCENTRICITY,INCLINATION,RA_OF_ASC_NODE,ARG_OF_PERICENTER,MEAN_ANOMALY,EPHEMERIS_TYPE,CLASSIFICATION_TYPE,NORAD_CAT_ID,ELEMENT_SET_NO,REV_AT_EPOCH,BSTAR,MEAN_MOTION_DOT,MEAN_MOTION_DDOT
STARLINK-11203 [DTC],2024-118E,2026-07-01T22:08:00.101760,15.69706004,.00008738,53.1595,18.2237,108.9458,251.1655,0,U,60117,999,11593,.470088E-6,-.531E-5,0
STARLINK-11177 [DTC],2024-118F,2026-07-01T06:44:05.233632,15.69714893,.00005878,53.1580,21.3289,141.5383,218.5677,0,U,60118,999,11583,-.7248184E-5,-.1466E-4,0
STARLINK-11127 [DTC],2024-118G,2026-07-01T06:37:01.383744,15.69719783,.0001012,53.1600,21.2982,80.8942,279.2191,0,U,60119,999,11583,.90053E-5,.503E-5,0
STARLINK-11164 [DTC],2024-118H,2026-07-01T03:26:35.804544,15.69724782,.00007917,53.1574,21.8924,79.9167,280.1940,0,U,60120,999,11581,.46293588E-4,.5027E-4,0
STARLINK-11119 [DTC],2024-118J,2026-07-01T19:53:55.288896,15.69725867,.0001585,53.1572,18.3416,80.2813,279.8384,0,U,60121,999,11592,.32113964E-4,.3305E-4,0
STARLINK-11157 [DTC],2024-118K,2026-07-01T20:00:59.289984,15.69712020,.00014498,53.1582,18.3742,79.1411,280.9770,0,U,60122,999,11592,.140743E-4,.1116E-4,0
STARLINK-11162 [DTC],2024-118L,2026-07-01T19:46:51.732768,15.69714969,.00009076,53.1594,18.3084,77.9918,282.1202,0,U,60123,999,11592,.8936028E-5,.495E-5,0
STARLINK-11161 [DTC],2024-118M,2026-07-01T19:39:56.706048,15.69710883,.00008861,53.1586,19.0114,66.1487,293.9624,0,U,60124,999,11591,.9703317E-5,.587E-5,0
STARLINK-11160 [DTC],2024-118N,2026-07-01T20:08:03.409440,15.69706507,.00009034,53.1577,18.4024,88.1106,272.0016,0,U,60125,999,11592,.14743658E-4,.1198E-4,0
STARLINK-31846,2024-118P,2026-07-01T19:18:41.692608,15.31701261,.00010667,53.1591,216.2594,92.0322,268.0801,0,U,60126,999,11317,-.11687515E-4,-.728E-5,0
STARLINK-31840,2024-118Q,2026-07-01T19:12:00.074304,15.31690273,.00011116,53.1583,216.2339,95.4093,264.7036,0,U,60127,999,11317,-.3807058E-4,-.1546E-4,0
STARLINK-31813,2024-118R,2026-07-01T09:14:35.813472,15.31711301,.00011858,53.1592,217.9119,80.9924,279.1212,0,U,60128,999,11311,.11640888E-4,-.4E-7,0
STARLINK-31845,2024-118S,2026-07-01T09:10:54.786720,15.30211172,.00011665,53.1592,216.4663,91.7798,268.3337,0,U,60129,999,11313,-.9148345E-5,-.63E-5,0
STARLINK-31838,2024-118T,2026-07-01T18:51:48.428352,15.31706259,.00010219,53.1588,216.1447,88.5227,271.5891,0,U,60130,999,11317,.11189183E-4,-.18E-6,0
STARLINK-31785,2024-118U,2026-07-01T09:07:52.552704,15.31707486,.00010298,53.1593,217.8793,78.4931,281.6186,0,U,60131,999,11311,.12237053E-4,.15E-6,0
STARLINK-31792,2024-118V,2026-07-01T19:44:57.303744,15.30194855,.00011538,53.1594,214.1954,80.9034,279.2097,0,U,60132,999,11320,.2021815E-4,.24E-5,0
GOES 19,2024-119A,2026-07-01T22:56:35.930688,1.00271416,.00005237,0.0102,90.1119,65.5493,33.3013,0,U,60133,999,711,0,-.238E-5,0
STARLINK-32043,2024-120A,2026-07-01T04:19:19.551360,15.34387231,.0001504,53.1602,151.9549,96.4041,263.7133,0,U,60135,999,11376,.22025E-4,.368E-5,0
STARLINK-32112,2024-120B,2026-07-01T04:22:19.854336,15.34398199,.0001354,53.1595,151.9711,83.3170,276.7987,0,U,60136,999,11384,.13534E-3,.4199E-4,0
STARLINK-32050,2024-120C,2026-07-01T21:15:55.099296,15.34379782,.00015685,53.1603,148.5447,76.9660,283.1517,0,U,60137,999,11387,-.24181752E-4,-.1193E-4,0
STARLINK-32025,2024-120D,2026-07-01T04:58:33.979008,15.34394120,.00014415,53.1602,151.4112,85.7914,274.3253,0,U,60138,999,11377,.7773262E-5,-.114E-5,0
STARLINK-31694,2024-120F,2026-07-01T21:43:10.375680,15.34389663,.00013466,53.1599,148.6612,94.9747,265.1410,0,U,60140,999,11395,-.11332735E-4,-.759E-5,0
STARLINK-32036,2024-120G,2026-07-01T06:14:18.445344,15.34387389,.0001215,53.1589,151.7404,86.2747,273.8394,0,U,60141,999,11385,-.24521E-4,-.1204E-4,0
STARLINK-32031,2024-120H,2026-07-01T04:55:31.865088,15.34394336,.00008386,53.1597,151.4039,95.9697,264.1401,0,U,60142,999,11385,.22332756E-4,.379E-5,0
STARLINK-32027,2024-120J,2026-07-01T05:01:36.876576,15.34380272,.00014244,53.1594,151.3862,92.4406,267.6760,0,U,60143,999,11385,-.6208439E-5,-.586E-5,0
STARLINK-32033,2024-120K,2026-07-01T04:46:35.757408,15.34379157,.00012536,53.1611,152.0768,77.9496,282.1647,0,U,60144,999,11376,-.33536916E-4,-.1508E-4,0
STARLINK-32029,2024-120L,2026-07-01T20:54:42.205248,15.34391927,.0001355,53.1600,148.4468,89.3511,270.7647,0,U,60145,999,11387,.20191067E-4,.306E-5,0
STARLINK-32127,2024-120M,2026-07-01T05:10:41.140416,15.34394566,.00012567,53.1593,151.4662,93.2652,266.8495,0,U,60146,999,11377,.7402246E-5,-.126E-5,0
STARLINK-32019,2024-120N,2026-07-01T05:13:42.911328,15.34400205,.00014445,53.1576,151.4804,80.2790,279.8375,0,U,60147,999,11377,.17190347E-3,.5436E-4,0
STARLINK-32021,2024-120P,2026-07-01T04:45:36.028224,15.31717702,.0001391,53.1593,142.1144,96.9371,263.1788,0,U,60148,999,11398,.11737E-3,.3281E-4,0
