STARLINK-11203 [DTC]    
1 60117U 24118E   26182.92222340 -.00000531  00000+0  47009-6 0  9999
2 60117  53.1595  18.2237 0000873 108.9458 251.1655 15.69706004115933
STARLINK-11177 [DTC]    
1 60118U 24118F   26182.28061613 -.00001466  00000+0 -72482-5 0  9994
2 60118  53.1580  21.3289 0000587 141.5383 218.5677 15.69714893115837
STARLINK-11127 [DTC]    
1 60119U 24118G   26182.27571046  .00000503  00000+0  90053-5 0  9993
2 60119  53.1600  21.2982 0001012  80.8942 279.2191 15.69719783115838
STARLINK-11164 [DTC]    
1 60120U 24118H   26182.14346996  .00005027  00000+0  46294-4 0  9998
2 60120  53.1574  21.8924 0000791  79.9167 280.1940 15.69724782115819
STARLINK-11119 [DTC]    
1 60121U 24118J   26182.82911214  .00003305  00000+0  32114-4 0  9998
2 60121  53.1572  18.3416 0001585  80.2813 279.8384 15.69725867115924
STARLINK-11157 [DTC]    
1 60122U 24118K   26182.83401956  .00001116  00000+0  14074-4 0  9990
2 60122  53.1582  18.3742 0001449  79.1411 280.9770 15.69712020115927
STARLINK-11162 [DTC]    
1 60123U 24118L   26182.82420987  .00000495  00000+0  89360-5 0  9995
2 60123  53.1594  18.3084 0000907  77.9918 282.1202 15.69714969115924
STARLINK-11161 [DTC]    
1 60124U 24118M   26182.81940632  .00000587  00000+0  97033-5 0  9997
2 60124  53.1586  19.0114 0000886  66.1487 293.9624 15.69710883115913
STARLINK-11160 [DTC]    
1 60125U 24118N   26182.83892835  .00001198  00000+0  14744-4 0  9997
2 60125  53.1577  18.4024 0000903  88.1106 272.0016 15.69706507115921
STARLINK-31846          
1 60126U 24118P   26182.80464922 -.00000728  00000+0 -11688-4 0  9991
2 60126  53.1591 216.2594 0001066  92.0322 268.0801 15.31701261113176
STARLINK-31840          
1 60127U 24118Q   26182.80000086 -.00001546  00000+0 -38071-4 0  9993
2 60127  53.1583 216.2339 0001111  95.4093 264.7036 15.31690273113171
STARLINK-31813          
1 60128U 24118R   26182.38513673 -.00000004  00000+0  11641-4 0  9999
2 60128  53.1592 217.9119 0001185  80.9924 279.1212 15.31711301113115
STARLINK-31845          
1 60129U 24118S   26182.38257855 -.00000630  00000+0 -91483-5 0  9996
2 60129  53.1592 216.4663 0001166  91.7798 268.3337 15.30211172113132
STARLINK-31838          
1 60130U 24118T   26182.78597718 -.00000018  00000+0  11189-4 0  9990
2 60130  53.1588 216.1447 0001021  88.5227 271.5891 15.31706259113178
STARLINK-31785          
1 60131U 24118U   26182.38046936  .00000015  00000+0  12237-4 0  9999
2 60131  53.1593 217.8793 0001029  78.4931 281.6186 15.31707486113111
STARLINK-31792          
1 60132U 24118V   26182.82288546  .00000240  00000+0  20218-4 0  9992
2 60132  53.1594 214.1954 0001153  80.9034 279.2097 15.30194855113205
GOES 19                 
1 60133U 24119A   26182.95597142 -.00000238  00000+0  00000+0 0  9993
2 60133   0.0102  90.1119 0000523  65.5493  33.3013  1.00271416  7115
STARLINK-32043          
1 60135U 24120A   26182.18008740  .00000368  00000+0  22025-4 0  9992
2 60135  53.1602 151.9549 0001504  96.4041 263.7133 15.34387231113762
STARLINK-32112          
1 60136U 24120B   26182.18217424  .00004199  00000+0  13534-3 0  9994
2 60136  53.1595 151.9711 0001354  83.3170 276.7987 15.34398199113841
STARLINK-32050          
1 60137U 24120C   26182.88605439 -.00001193  00000+0 -24182-4 0  9994
2 60137  53.1603 148.5447 0001568  76.9660 283.1517 15.34379782113870
STARLINK-32025          
1 60138U 24120D   26182.20733772 -.00000114  00000+0  77733-5 0  9995
2 60138  53.1602 151.4112 0001441  85.7914 274.3253 15.34394120113773
STARLINK-31694          
1 60140U 24120F   26182.90498120 -.00000759  00000+0 -11333-4 0  9999
2 60140  53.1599 148.6612 0001346  94.9747 265.1410 15.34389663113953
STARLINK-32036          
1 60141U 24120G   26182.25993571 -.00001204  00000+0 -24521-4 0  9997
2 60141  53.1589 151.7404 0001215  86.2747 273.8394 15.34387389113855
STARLINK-32031          
1 60142U 24120H   26182.20522992  .00000379  00000+0  22333-4 0  9997
2 60142  53.1597 151.4039 0000838  95.9697 264.1401 15.34394336113859
STARLINK-32027          
1 60143U 24120J   26182.20945459 -.00000586  00000+0 -62084-5 0  9995
2 60143  53.1594 151.3862 0001424  92.4406 267.6760 15.34380272113852
STARLINK-32033          
1 60144U 24120K   26182.19902497 -.00001508  00000+0 -33537-4 0  9994
2 60144  53.1611 152.0768 0001253  77.9496 282.1647 15.34379157113769
STARLINK-32029          
1 60145U 24120L   26182.87132182  .00000306  00000+0  20191-4 0  9991
2 60145  53.1600 148.4468 0001355  89.3511 270.7647 15.34391927113876
STARLINK-32127          
1 60146U 24120M   26182.21575394 -.00000126  00000+0  74022-5 0  9990
2 60146  53.1593 151.4662 0001256  93.2652 266.8495 15.34394566113776
STARLINK-32019          
1 60147U 24120N   26182.21785777  .00005436  00000+0  17190-3 0  9998
2 60147  53.1576 151.4804 0001444  80.2790 279.8375 15.34400205113773
STARLINK-32021          
1 60148U 24120P   26182.19833366  .00003281  00000+0  11737-3 0  9991
2 60148  53.1593 142.1144 0001391  96.9371 263.1788 15.31717702113984
